[{"OBJECT_NAME":"TEVEL2-3","OBJECT_ID":"2025-052J","EPOCH":"2026-03-09T15:29:22.754400","MEAN_MOTION":15.30377031,"ECCENTRICITY":0.0004761,"INCLINATION":97.3994,"RA_OF_ASC_NODE":324.7775,"ARG_OF_PERICENTER":105.7353,"MEAN_ANOMALY":254.4413,"EPHEMERIS_TYPE":0,"CLASSIFICATION_TYPE":"U","NORAD_CAT_ID":63218,"ELEMENT_SET_NO":999,"REV_AT_EPOCH":5485,"BSTAR":0.00069446,"MEAN_MOTION_DOT":0.00020365,"MEAN_MOTION_DDOT":0},{"OBJECT_NAME":"STARLINK-34092","OBJECT_ID":"2025-095Q","EPOCH":"2026-03-08T08:59:45.354336","MEAN_MOTION":15.2761699,"ECCENTRICITY":0.0004049,"INCLINATION":43.0048,"RA_OF_ASC_NODE":183.9185,"ARG_OF_PERICENTER":289.7092,"MEAN_ANOMALY":70.3323,"EPHEMERIS_TYPE":0,"CLASSIFICATION_TYPE":"U","NORAD_CAT_ID":63904,"ELEMENT_SET_NO":999,"REV_AT_EPOCH":4757,"BSTAR":0.00074418038,"MEAN_MOTION_DOT":0.00020298,"MEAN_MOTION_DDOT":0}]
