TEVEL2-3                
1 63218U 25052J   26068.64540225  .00020365  00000+0  69446-3 0  9991
2 63218  97.3994 324.7775 0004761 105.7353 254.4413 15.30377031 54855
STARLINK-34092          
1 63904U 25095Q   26067.37483049  .00020298  00000+0  74418-3 0  9999
2 63904  43.0048 183.9185 0004049 289.7092  70.3323 15.27616990 47579
